OBJECT_NAME,OBJECT_ID,EPOCH,MEAN_MOTION,ECCENTRICITY,INCLINATION,RA_OF_ASC_NODE,ARG_OF_PERICENTER,MEAN_ANOMALY,EPHEMERIS_TYPE,CLASSIFICATION_TYPE,NORAD_CAT_ID,ELEMENT_SET_NO,REV_AT_EPOCH,BSTAR,MEAN_MOTION_DOT,MEAN_MOTION_DDOT
EYESAT A (AO-27),1993-061C,2026-06-16T03:51:32.183424,14.30942024,.00095326,98.6881,234.5747,102.3705,257.8545,0,U,22825,999,70685,.50436961E-4,.88E-6,0
ITAMSAT (IO-26),1993-061D,2026-06-16T00:01:00.641568,14.31368850,.00100961,98.6828,234.3320,88.1549,272.0790,0,U,22826,999,70714,.4865967E-4,.84E-6,0
RADIO ROSTO (RS15),1994-085A,2026-06-16T01:14:27.917664,11.27583453,.01559192,64.8179,305.0526,4.0859,356.1299,0,U,23439,999,29577,-.32993386E-3,-.54E-6,0
JAS-2 (FO-29),1996-046B,2026-06-15T19:58:41.761056,13.53274294,.03508846,98.5240,15.8902,99.9379,264.1549,0,U,24278,999,47298,.45763049E-4,.13E-6,0
FORTE,1997-047A,2026-06-15T23:22:37.037856,14.27944698,.00246259,69.9540,16.7616,278.8825,80.9509,0,U,24920,999,49851,.69420622E-4,.115E-5,0
TECHSAT 1B (GO-32),1998-043D,2026-06-16T05:18:55.343232,14.24428195,.0001002,99.0067,159.9557,165.2007,194.9200,0,U,25397,999,45119,.3314149E-4,.3E-6,0
ISS (ZARYA),1998-067A,2026-06-16T02:13:48.364032,15.49253146,.00048059,51.6337,305.5091,191.3253,168.7628,0,U,25544,999,57158,.14354606E-3,.7536E-4,0
IMAGE,2000-017A,2026-06-11T08:17:58.695072,1.68665984,.7436383,94.2241,315.2958,288.4674,8.8959,0,U,26113,999,16140,.22926E-1,.11E-6,0
CLUSTER II-FM7 (SAMBA),2000-041A,2026-06-17T03:20:03.973632,0.44868040,.9054007,149.9159,50.9864,268.1291,359.6411,0,U,26410,999,2030,0,.13373E-3,0
CLUSTER II-FM8 (TANGO),2000-045B,2026-06-15T04:28:42.164832,0.44404213,.90566584,150.1471,51.6871,268.6526,2.8141,0,U,26464,999,2030,0,.11723E-3,0
ODIN,2001-007A,2026-06-16T01:52:44.157504,15.75459520,.00067824,97.3827,207.9489,144.4595,215.7123,0,U,26702,999,38922,.10318621E-2,.158692E-2,0
OMNI-M1,2001-026A,2026-06-16T05:01:03.889920,3.92401638,.0014194,44.8307,245.4893,53.4474,306.7446,0,U,26857,999,20553,0,-.1E-7,0
PCSAT (NO-44),2001-043C,2026-06-16T07:42:29.103552,14.31955843,.00060753,67.0506,246.5117,264.6172,95.4237,0,U,26931,999,29032,.59468743E-4,.76E-6,0
PROBA-1,2001-049B,2026-06-16T06:34:13.721952,15.07493377,.00564001,97.9596,175.7742,124.8381,235.8169,0,U,26958,999,34348,.12413413E-3,.1881E-4,0
SAUDISAT 1C (SO-50),2002-058C,2026-06-16T06:41:17.643552,14.83045303,.00752794,64.5510,131.7962,262.6422,96.6125,0,U,27607,999,26432,.11840739E-3,.856E-5,0
CORIOLIS,2003-001A,2026-06-16T06:44:50.093376,14.19944562,.00133156,98.7125,174.1797,211.5347,148.5033,0,U,27640,999,21409,.56837654E-4,.77E-6,0
CUTE-1 (CO-55),2003-031E,2026-06-16T06:20:48.283872,14.24335232,.00094679,98.6736,175.8349,180.6624,179.4544,0,U,27844,999,19154,.12106764E-3,.236E-5,0
CUBESAT XI-IV (CO-57),2003-031J,2026-06-15T23:18:41.130432,14.23620242,.00089443,98.6765,175.2591,200.7616,159.3200,0,U,27848,999,19120,.10701839E-3,.2E-5,0
MOZHAETS 4 (RS22),2003-042A,2026-06-16T08:10:36.155136,14.73465031,.00099349,98.3462,351.6754,272.8490,208.6737,0,U,27939,999,21542,.75630017E-4,.437E-5,0
